{"type": "FeatureCollection", "features": [ {"type": "Feature", "properties": {"norad_id": 38779, "name": "GSAT-10 (GAGAN/PRN 128)", "group": "gnss", "lat": -0.03618275350100136, "lon": -121.37511348790436, "alt_km": 35790.490266128, "timestamp": "2025-12-27T03:58:44.397887+00:00", "meta": {"OBJECT_NAME": "GSAT-10 (GAGAN/PRN 128)", "OBJECT_ID": "2012-051B", "EPOCH": "2025-12-26T17:34:19.233120", "MEAN_MOTION": 1.00270579, "ECCENTRICITY": 0.0002054, "INCLINATION": 0.0583, "RA_OF_ASC_NODE": 261.5664, "ARG_OF_PERICENTER": 219.4554, "MEAN_ANOMALY": 321.0592, "EPHEMERIS_TYPE": 0, "CLASSIFICATION_TYPE": "U", "NORAD_CAT_ID": 38779, "ELEMENT_SET_NO": 999, "REV_AT_EPOCH": 4836, "BSTAR": 0, "MEAN_MOTION_DOT": -1.43e-06, "MEAN_MOTION_DDOT": 0}, "tle": {"line1": "1 38779U 12051B   25360.73216705 -.00000143  00000+0  00000+0 0  9997", "line2": "2 38779   0.0583 261.5664 0002054 219.4554 321.0592  1.00270579 48367"}}, "geometry": {"type": "Point", "coordinates": [-121.37511348790436, -0.03618275350100136]}}, {"type": "Feature", "properties": {"norad_id": 38833, "name": "GPS BIIF-3  (PRN 24)", "group": "gnss", "lat": -51.726064260022696, "lon": 40.06266253611291, "alt_km": 20642.30622051517, "timestamp": "2025-12-27T03:58:44.397898+00:00", "meta": {"OBJECT_NAME": "GPS BIIF-3  (PRN 24)", "OBJECT_ID": "2012-053A", "EPOCH": "2025-12-26T07:30:08.502624", "MEAN_MOTION": 2.00565043, "ECCENTRICITY": 0.0176105, "INCLINATION": 53.56, "RA_OF_ASC_NODE": 150.6829, "ARG_OF_PERICENTER": 64.189, "MEAN_ANOMALY": 297.6002, "EPHEMERIS_TYPE": 0, "CLASSIFICATION_TYPE": "U", "NORAD_CAT_ID": 38833, "ELEMENT_SET_NO": 999, "REV_AT_EPOCH": 9597, "BSTAR": 0, "MEAN_MOTION_DOT": 9.8e-07, "MEAN_MOTION_DDOT": 0}, "tle": {"line1": "1 38833U 12053A   25360.31259841  .00000098  00000+0  00000+0 0  9990", "line2": "2 38833  53.5600 150.6829 0176105  64.1890 297.6002  2.00565043 95976"}}, "geometry": {"type": "Point", "coordinates": [40.06266253611291, -51.726064260022696]}}, {"type": "Feature", "properties": {"norad_id": 38857, "name": "GSAT0103 (GALILEO-FM3)", "group": "gnss", "lat": 55.71897766121655, "lon": -163.7314011727958, "alt_km": 23224.710156732694, "timestamp": "2025-12-27T03:58:44.397908+00:00", "meta": {"OBJECT_NAME": "GSAT0103 (GALILEO-FM3)", "OBJECT_ID": "2012-055A", "EPOCH": "2025-12-22T21:54:43.252704", "MEAN_MOTION": 1.70473351, "ECCENTRICITY": 0.0002995, "INCLINATION": 55.698, "RA_OF_ASC_NODE": 106.3873, "ARG_OF_PERICENTER": 269.858, "MEAN_ANOMALY": 90.0891, "EPHEMERIS_TYPE": 0, "CLASSIFICATION_TYPE": "U", "NORAD_CAT_ID": 38857, "ELEMENT_SET_NO": 999, "REV_AT_EPOCH": 8200, "BSTAR": 0, "MEAN_MOTION_DOT": 1e-07, "MEAN_MOTION_DDOT": 0}, "tle": {"line1": "1 38857U 12055A   25356.91300061  .00000010  00000+0  00000+0 0  9994", "line2": "2 38857  55.6980 106.3873 0002995 269.8580  90.0891  1.70473351 82005"}}, "geometry": {"type": "Point", "coordinates": [-163.7314011727958, 55.71897766121655]}}, {"type": "Feature", "properties": {"norad_id": 38953, "name": "BEIDOU-2 G6 (C02)", "group": "gnss", "lat": 1.0787611895527704, "lon": -120.49712477890803, "alt_km": 35806.3817057044, "timestamp": "2025-12-27T03:58:44.397919+00:00", "meta": {"OBJECT_NAME": "BEIDOU-2 G6 (C02)", "OBJECT_ID": "2012-059A", "EPOCH": "2025-12-26T19:58:57.019296", "MEAN_MOTION": 1.0027452, "ECCENTRICITY": 0.0007915, "INCLINATION": 3.983, "RA_OF_ASC_NODE": 75.3721, "ARG_OF_PERICENTER": 293.6787, "MEAN_ANOMALY": 110.2093, "EPHEMERIS_TYPE": 0, "CLASSIFICATION_TYPE": "U", "NORAD_CAT_ID": 38953, "ELEMENT_SET_NO": 999, "REV_AT_EPOCH": 4818, "BSTAR": 0, "MEAN_MOTION_DOT": -1.55e-06, "MEAN_MOTION_DDOT": 0}, "tle": {"line1": "1 38953U 12059A   25360.83260439 -.00000155  00000+0  00000+0 0  9996", "line2": "2 38953   3.9830  75.3721 0007915 293.6787 110.2093  1.00274520 48180"}}, "geometry": {"type": "Point", "coordinates": [-120.49712477890803, 1.0787611895527704]}}, {"type": "Feature", "properties": {"norad_id": 38977, "name": "LUCH 5B (SDCM/PRN 125)", "group": "gnss", "lat": 10.115341770228342, "lon": 139.13795728204454, "alt_km": 35794.048811907116, "timestamp": "2025-12-27T03:58:44.397929+00:00", "meta": {"OBJECT_NAME": "LUCH 5B (SDCM/PRN 125)", "OBJECT_ID": "2012-061A", "EPOCH": "2025-12-26T06:28:21.776736", "MEAN_MOTION": 1.00271436, "ECCENTRICITY": 0.0006665, "INCLINATION": 10.1083, "RA_OF_ASC_NODE": 51.5748, "ARG_OF_PERICENTER": 196.3721, "MEAN_ANOMALY": 287.8297, "EPHEMERIS_TYPE": 0, "CLASSIFICATION_TYPE": "U", "NORAD_CAT_ID": 38977, "ELEMENT_SET_NO": 999, "REV_AT_EPOCH": 4787, "BSTAR": 0, "MEAN_MOTION_DOT": -1.2e-06, "MEAN_MOTION_DDOT": 0}, "tle": {"line1": "1 38977U 12061A   25360.26969649 -.00000120  00000+0  00000+0 0  9993", "line2": "2 38977  10.1083  51.5748 0006665 196.3721 287.8297  1.00271436 47874"}}, "geometry": {"type": "Point", "coordinates": [139.13795728204454, 10.115341770228342]}}, {"type": "Feature", "properties": {"norad_id": 39155, "name": "COSMOS 2485 (747)", "group": "gnss", "lat": 3.1261895564798197, "lon": 80.83015440194721, "alt_km": 19173.351311590963, "timestamp": "2025-12-27T03:58:44.397940+00:00", "meta": {"OBJECT_NAME": "COSMOS 2485 (747)", "OBJECT_ID": "2013-019A", "EPOCH": "2025-12-26T16:36:31.892256", "MEAN_MOTION": 2.13103192, "ECCENTRICITY": 0.0025021, "INCLINATION": 65.3204, "RA_OF_ASC_NODE": 79.3983, "ARG_OF_PERICENTER": 230.593, "MEAN_ANOMALY": 129.2312, "EPHEMERIS_TYPE": 0, "CLASSIFICATION_TYPE": "U", "NORAD_CAT_ID": 39155, "ELEMENT_SET_NO": 999, "REV_AT_EPOCH": 9860, "BSTAR": 0, "MEAN_MOTION_DOT": -8e-08, "MEAN_MOTION_DDOT": 0}, "tle": {"line1": "1 39155U 13019A   25360.69203579 -.00000008  00000+0  00000+0 0  9991", "line2": "2 39155  65.3204  79.3983 0025021 230.5930 129.2312  2.13103192 98601"}}, "geometry": {"type": "Point", "coordinates": [80.83015440194721, 3.1261895564798197]}}, {"type": "Feature", "properties": {"norad_id": 39166, "name": "GPS BIIF-4  (PRN 27)", "group": "gnss", "lat": -4.8703501984741155, "lon": -87.48681438415463, "alt_km": 19966.953587264637, "timestamp": "2025-12-27T03:58:44.397950+00:00", "meta": {"OBJECT_NAME": "GPS BIIF-4  (PRN 27)", "OBJECT_ID": "2013-023A", "EPOCH": "2025-12-26T04:14:33.249408", "MEAN_MOTION": 2.00564526, "ECCENTRICITY": 0.0138718, "INCLINATION": 54.6404, "RA_OF_ASC_NODE": 276.0219, "ARG_OF_PERICENTER": 48.7908, "MEAN_ANOMALY": 312.4421, "EPHEMERIS_TYPE": 0, "CLASSIFICATION_TYPE": "U", "NORAD_CAT_ID": 39166, "ELEMENT_SET_NO": 999, "REV_AT_EPOCH": 9241, "BSTAR": 0, "MEAN_MOTION_DOT": -2.2e-07, "MEAN_MOTION_DDOT": 0}, "tle": {"line1": "1 39166U 13023A   25360.17677372 -.00000022  00000+0  00000+0 0  9993", "line2": "2 39166  54.6404 276.0219 0138718  48.7908 312.4421  2.00564526 92414"}}, "geometry": {"type": "Point", "coordinates": [-87.48681438415463, -4.8703501984741155]}}, {"type": "Feature", "properties": {"norad_id": 39199, "name": "IRNSS-1A", "group": "gnss", "lat": 19.991258951736643, "lon": -144.46996299180896, "alt_km": 35746.79495024465, "timestamp": "2025-12-27T03:58:44.397962+00:00", "meta": {"OBJECT_NAME": "IRNSS-1A", "OBJECT_ID": "2013-034A", "EPOCH": "2025-12-24T18:29:47.559840", "MEAN_MOTION": 1.00273605, "ECCENTRICITY": 0.00238143, "INCLINATION": 35.3368, "RA_OF_ASC_NODE": 66.3779, "ARG_OF_PERICENTER": 212.7296, "MEAN_ANOMALY": 146.6998, "EPHEMERIS_TYPE": 0, "CLASSIFICATION_TYPE": "U", "NORAD_CAT_ID": 39199, "ELEMENT_SET_NO": 999, "REV_AT_EPOCH": 4561, "BSTAR": 0, "MEAN_MOTION_DOT": 7.9e-07, "MEAN_MOTION_DDOT": 0}, "tle": {"line1": "1 39199U 13034A   25358.77068935  .00000079  00000+0  00000+0 0  9994", "line2": "2 39199  35.3368  66.3779 0023814 212.7296 146.6998  1.00273605 45619"}}, "geometry": {"type": "Point", "coordinates": [-144.46996299180896, 19.991258951736643]}}, {"type": "Feature", "properties": {"norad_id": 39533, "name": "GPS BIIF-5  (PRN 30)", "group": "gnss", "lat": -1.4774911870869385, "lon": 155.24599728960752, "alt_km": 20324.867921092893, "timestamp": "2025-12-27T03:58:44.397972+00:00", "meta": {"OBJECT_NAME": "GPS BIIF-5  (PRN 30)", "OBJECT_ID": "2014-008A", "EPOCH": "2025-12-23T16:16:25.020768", "MEAN_MOTION": 2.00548852, "ECCENTRICITY": 0.00795532, "INCLINATION": 53.5993, "RA_OF_ASC_NODE": 156.4877, "ARG_OF_PERICENTER": 225.9161, "MEAN_ANOMALY": 133.4108, "EPHEMERIS_TYPE": 0, "CLASSIFICATION_TYPE": "U", "NORAD_CAT_ID": 39533, "ELEMENT_SET_NO": 999, "REV_AT_EPOCH": 8616, "BSTAR": 0, "MEAN_MOTION_DOT": 8.2e-07, "MEAN_MOTION_DDOT": 0}, "tle": {"line1": "1 39533U 14008A   25357.67806737  .00000082  00000+0  00000+0 0  9990", "line2": "2 39533  53.5993 156.4877 0079553 225.9161 133.4108  2.00548852 86167"}}, "geometry": {"type": "Point", "coordinates": [155.24599728960752, -1.4774911870869385]}}, {"type": "Feature", "properties": {"norad_id": 39617, "name": "ASTRA 5B (EGNOS/PRN 123)", "group": "gnss", "lat": 0.019528675293525286, "lon": 179.01641160577663, "alt_km": 35790.24697017958, "timestamp": "2025-12-27T03:58:44.397983+00:00", "meta": {"OBJECT_NAME": "ASTRA 5B (EGNOS/PRN 123)", "OBJECT_ID": "2014-011B", "EPOCH": "2025-12-26T18:16:52.993344", "MEAN_MOTION": 1.00271716, "ECCENTRICITY": 0.0004724, "INCLINATION": 0.0463, "RA_OF_ASC_NODE": 18.9055, "ARG_OF_PERICENTER": 262.2936, "MEAN_ANOMALY": 112.0152, "EPHEMERIS_TYPE": 0, "CLASSIFICATION_TYPE": "U", "NORAD_CAT_ID": 39617, "ELEMENT_SET_NO": 999, "REV_AT_EPOCH": 4293, "BSTAR": 0, "MEAN_MOTION_DOT": 1.59e-06, "MEAN_MOTION_DDOT": 0}, "tle": {"line1": "1 39617U 14011B   25360.76172446  .00000159  00000+0  00000+0 0  9999", "line2": "2 39617   0.0463  18.9055 0004724 262.2936 112.0152  1.00271716 42931"}}, "geometry": {"type": "Point", "coordinates": [179.01641160577663, 0.019528675293525286]}}]}